{
  "links" : {
    "next" : "https://api.nasa.gov/neo/rest/v1/feed?start_date=2014-06-23&end_date=2014-06-23&detailed=true&api_key=t0TVs3DtDT2H8Oy2Zy8m2eVrNsAVKAexjcZXUckd",
    "prev" : "https://api.nasa.gov/neo/rest/v1/feed?start_date=2014-06-21&end_date=2014-06-21&detailed=true&api_key=t0TVs3DtDT2H8Oy2Zy8m2eVrNsAVKAexjcZXUckd",
    "self" : "https://api.nasa.gov/neo/rest/v1/feed?start_date=2014-06-22&end_date=2014-06-22&detailed=true&api_key=t0TVs3DtDT2H8Oy2Zy8m2eVrNsAVKAexjcZXUckd"
  },
  "element_count" : 10,
  "near_earth_objects" : {
    "2014-06-22" : [ {
      "links" : {
        "self" : "https://api.nasa.gov/neo/rest/v1/neo/3555152?api_key=t0TVs3DtDT2H8Oy2Zy8m2eVrNsAVKAexjcZXUckd"
      },
      "neo_reference_id" : "3555152",
      "name" : "(2011 AX22)",
      "nasa_jpl_url" : "http://ssd.jpl.nasa.gov/sbdb.cgi?sstr=3555152",
      "absolute_magnitude_h" : 24.7,
      "estimated_diameter" : {
        "kilometers" : {
          "estimated_diameter_min" : 0.0305179233,
          "estimated_diameter_max" : 0.0682401509
        },
        "meters" : {
          "estimated_diameter_min" : 30.5179232594,
          "estimated_diameter_max" : 68.2401509401
        },
        "miles" : {
          "estimated_diameter_min" : 0.0189629525,
          "estimated_diameter_max" : 0.0424024508
        },
        "feet" : {
          "estimated_diameter_min" : 100.1244233463,
          "estimated_diameter_max" : 223.8850168104
        }
      },
      "is_potentially_hazardous_asteroid" : false,
      "close_approach_data" : [ {
        "close_approach_date" : "2014-06-22",
        "epoch_date_close_approach" : 1403420400000,
        "relative_velocity" : {
          "kilometers_per_second" : "6.1976648986",
          "kilometers_per_hour" : "22311.5936348283",
          "miles_per_hour" : "13863.5566115965"
        },
        "miss_distance" : {
          "astronomical" : "0.2475462291",
          "lunar" : "96.2954788208",
          "kilometers" : "37032388",
          "miles" : "23010860"
        },
        "orbiting_body" : "Earth"
      } ],
      "orbital_data" : {
        "orbit_id" : "14",
        "orbit_determination_date" : "2017-04-06 08:55:02",
        "orbit_uncertainty" : "3",
        "minimum_orbit_intersection" : ".00113902",
        "jupiter_tisserand_invariant" : "6.195",
        "epoch_osculation" : "2458000.5",
        "eccentricity" : ".3368756220869389",
        "semi_major_axis" : ".9665979652028791",
        "inclination" : ".6868590700367799",
        "ascending_node_longitude" : "57.82890735398689",
        "orbital_period" : "347.1100928259351",
        "perihelion_distance" : ".6409746743671899",
        "perihelion_argument" : "291.2636710704388",
        "aphelion_distance" : "1.292221256038568",
        "perihelion_time" : "2457923.128197769282",
        "mean_anomaly" : "80.24499828366039",
        "mean_motion" : "1.037134924741381",
        "equinox" : "J2000"
      }
    }, {
      "links" : {
        "self" : "https://api.nasa.gov/neo/rest/v1/neo/3605944?api_key=t0TVs3DtDT2H8Oy2Zy8m2eVrNsAVKAexjcZXUckd"
      },
      "neo_reference_id" : "3605944",
      "name" : "(2012 MD7)",
      "nasa_jpl_url" : "http://ssd.jpl.nasa.gov/sbdb.cgi?sstr=3605944",
      "absolute_magnitude_h" : 24.1,
      "estimated_diameter" : {
        "kilometers" : {
          "estimated_diameter_min" : 0.040230458,
          "estimated_diameter_max" : 0.0899580388
        },
        "meters" : {
          "estimated_diameter_min" : 40.2304579834,
          "estimated_diameter_max" : 89.9580388169
        },
        "miles" : {
          "estimated_diameter_min" : 0.0249980399,
          "estimated_diameter_max" : 0.0558973165
        },
        "feet" : {
          "estimated_diameter_min" : 131.9896957704,
          "estimated_diameter_max" : 295.1379320721
        }
      },
      "is_potentially_hazardous_asteroid" : false,
      "close_approach_data" : [ {
        "close_approach_date" : "2014-06-22",
        "epoch_date_close_approach" : 1403420400000,
        "relative_velocity" : {
          "kilometers_per_second" : "14.0985463255",
          "kilometers_per_hour" : "50754.7667717089",
          "miles_per_hour" : "31537.0382754544"
        },
        "miss_distance" : {
          "astronomical" : "0.3728468807",
          "lunar" : "145.0374298096",
          "kilometers" : "55777100",
          "miles" : "34658284"
        },
        "orbiting_body" : "Earth"
      } ],
      "orbital_data" : {
        "orbit_id" : "4",
        "orbit_determination_date" : "2017-04-06 08:49:27",
        "orbit_uncertainty" : "7",
        "minimum_orbit_intersection" : ".0173673",
        "jupiter_tisserand_invariant" : "6.186",
        "epoch_osculation" : "2458000.5",
        "eccentricity" : ".1088577055906404",
        "semi_major_axis" : ".9768573458662267",
        "inclination" : "3.755107939869624",
        "ascending_node_longitude" : "266.1631235573059",
        "orbital_period" : "352.6510221070775",
        "perihelion_distance" : ".8705188965058666",
        "perihelion_argument" : "135.4043324918305",
        "aphelion_distance" : "1.083195795226587",
        "perihelion_time" : "2457984.355792937530",
        "mean_anomaly" : "16.48064000428313",
        "mean_motion" : "1.020839236049885",
        "equinox" : "J2000"
      }
    }, {
      "links" : {
        "self" : "https://api.nasa.gov/neo/rest/v1/neo/3673825?api_key=t0TVs3DtDT2H8Oy2Zy8m2eVrNsAVKAexjcZXUckd"
      },
      "neo_reference_id" : "3673825",
      "name" : "(2014 MP)",
      "nasa_jpl_url" : "http://ssd.jpl.nasa.gov/sbdb.cgi?sstr=3673825",
      "absolute_magnitude_h" : 26.0,
      "estimated_diameter" : {
        "kilometers" : {
          "estimated_diameter_min" : 0.0167708462,
          "estimated_diameter_max" : 0.0375007522
        },
        "meters" : {
          "estimated_diameter_min" : 16.7708462163,
          "estimated_diameter_max" : 37.5007521798
        },
        "miles" : {
          "estimated_diameter_min" : 0.0104209175,
          "estimated_diameter_max" : 0.0233018799
        },
        "feet" : {
          "estimated_diameter_min" : 55.0224631002,
          "estimated_diameter_max" : 123.0339677816
        }
      },
      "is_potentially_hazardous_asteroid" : false,
      "close_approach_data" : [ {
        "close_approach_date" : "2014-06-22",
        "epoch_date_close_approach" : 1403420400000,
        "relative_velocity" : {
          "kilometers_per_second" : "5.0322205989",
          "kilometers_per_hour" : "18115.9941559015",
          "miles_per_hour" : "11256.5742575934"
        },
        "miss_distance" : {
          "astronomical" : "0.023270967",
          "lunar" : "9.052406311",
          "kilometers" : "3481287",
          "miles" : "2163171.5"
        },
        "orbiting_body" : "Earth"
      } ],
      "orbital_data" : {
        "orbit_id" : "9",
        "orbit_determination_date" : "2017-04-06 08:40:03",
        "orbit_uncertainty" : "6",
        "minimum_orbit_intersection" : ".0190403",
        "jupiter_tisserand_invariant" : "5.839",
        "epoch_osculation" : "2458000.5",
        "eccentricity" : ".02916637480495636",
        "semi_major_axis" : "1.050476593288565",
        "inclination" : "9.559043852419226",
        "ascending_node_longitude" : "91.1642772353574",
        "orbital_period" : "393.2583898581927",
        "perihelion_distance" : "1.019837999244877",
        "perihelion_argument" : "118.5901265574325",
        "aphelion_distance" : "1.081115187332253",
        "perihelion_time" : "2457948.083716830052",
        "mean_anomaly" : "47.98336774960044",
        "mean_motion" : ".9154286578089648",
        "equinox" : "J2000"
      }
    } ]
  }
}